{
  "type": "FeatureCollection",
  "features": [
    {
      "type": "Feature",
      "properties": {
        "norad_id": 66562,
        "name": "STARLINK-35579",
        "group": "last-30-days",
        "lat": 1.0852488723686056,
        "lon": -15.811359433519165,
        "alt_km": 364.76867314422543,
        "timestamp": "2025-12-05T05:43:13.897131+00:00",
        "meta_object_name": "STARLINK-35579",
        "meta_object_id": "2025-268F",
        "meta_epoch": "2025-12-04T18:00:02.000160",
        "meta_mean_motion": 15.69898936,
        "meta_eccentricity": 0.0001559,
        "meta_inclination": 42.9987,
        "meta_ra_of_asc_node": 168.2898,
        "meta_arg_of_pericenter": 264.7654,
        "meta_mean_anomaly": 32.1634,
        "meta_ephemeris_type": 0,
        "meta_classification_type": "U",
        "meta_norad_cat_id": 66562,
        "meta_element_set_no": 999,
        "meta_rev_at_epoch": 338,
        "meta_bstar": -0.017701,
        "meta_mean_motion_dot": -0.01933781,
        "meta_mean_motion_ddot": 0,
        "tle_line1": "1 66562U 25268F   25338.75002315 -.01933781  00000+0 -17701-1 0  9992",
        "tle_line2": "2 66562  42.9987 168.2898 0001559 264.7654  32.1634 15.69898936  3389"
      },
      "geometry": {
        "type": "Point",
        "coordinates": [
          -15.811359433519165,
          1.0852488723686056
        ]
      }
    },
    {
      "type": "Feature",
      "properties": {
        "norad_id": 66563,
        "name": "STARLINK-35437",
        "group": "last-30-days",
        "lat": -1.5275019356098636,
        "lon": -13.016035951962838,
        "alt_km": 365.05808015824005,
        "timestamp": "2025-12-05T05:43:13.897144+00:00",
        "meta_object_name": "STARLINK-35437",
        "meta_object_id": "2025-268G",
        "meta_epoch": "2025-12-04T18:00:02.000160",
        "meta_mean_motion": 15.69901983,
        "meta_eccentricity": 0.0001629,
        "meta_inclination": 42.9987,
        "meta_ra_of_asc_node": 168.2803,
        "meta_arg_of_pericenter": 266.2263,
        "meta_mean_anomaly": 34.534,
        "meta_ephemeris_type": 0,
        "meta_classification_type": "U",
        "meta_norad_cat_id": 66563,
        "meta_element_set_no": 999,
        "meta_rev_at_epoch": 338,
        "meta_bstar": -0.017733,
        "meta_mean_motion_dot": -0.01937127,
        "meta_mean_motion_ddot": 0,
        "tle_line1": "1 66563U 25268G   25338.75002315 -.01937127  00000+0 -17733-1 0  9996",
        "tle_line2": "2 66563  42.9987 168.2803 0001629 266.2263  34.5340 15.69901983  3384"
      },
      "geometry": {
        "type": "Point",
        "coordinates": [
          -13.016035951962838,
          -1.5275019356098636
        ]
      }
    },
    {
      "type": "Feature",
      "properties": {
        "norad_id": 66564,
        "name": "STARLINK-35358",
        "group": "last-30-days",
        "lat": -2.8335621867898566,
        "lon": -11.615665775218877,
        "alt_km": 365.1917203313851,
        "timestamp": "2025-12-05T05:43:13.897157+00:00",
        "meta_object_name": "STARLINK-35358",
        "meta_object_id": "2025-268H",
        "meta_epoch": "2025-12-04T18:00:02.000160",
        "meta_mean_motion": 15.69901598,
        "meta_eccentricity": 0.0001601,
        "meta_inclination": 42.9986,
        "meta_ra_of_asc_node": 168.2757,
        "meta_arg_of_pericenter": 266.6639,
        "meta_mean_anomaly": 36.0144,
        "meta_ephemeris_type": 0,
        "meta_classification_type": "U",
        "meta_norad_cat_id": 66564,
        "meta_element_set_no": 999,
        "meta_rev_at_epoch": 333,
        "meta_bstar": -0.017736,
        "meta_mean_motion_dot": -0.0193734,
        "meta_mean_motion_ddot": 0,
        "tle_line1": "1 66564U 25268H   25338.75002315 -.01937340  00000+0 -17736-1 0  9997",
        "tle_line2": "2 66564  42.9986 168.2757 0001601 266.6639  36.0144 15.69901598  3339"
      },
      "geometry": {
        "type": "Point",
        "coordinates": [
          -11.615665775218877,
          -2.8335621867898566
        ]
      }
    },
    {
      "type": "Feature",
      "properties": {
        "norad_id": 66565,
        "name": "STARLINK-35893",
        "group": "last-30-days",
        "lat": -4.137500469598365,
        "lon": -10.213085141677565,
        "alt_km": 365.2807744100992,
        "timestamp": "2025-12-05T05:43:13.897191+00:00",
        "meta_object_name": "STARLINK-35893",
        "meta_object_id": "2025-268J",
        "meta_epoch": "2025-12-04T18:00:02.000160",
        "meta_mean_motion": 15.6989749,
        "meta_eccentricity": 0.0001647,
        "meta_inclination": 42.9987,
        "meta_ra_of_asc_node": 168.2706,
        "meta_arg_of_pericenter": 266.0584,
        "meta_mean_anomaly": 38.5392,
        "meta_ephemeris_type": 0,
        "meta_classification_type": "U",
        "meta_norad_cat_id": 66565,
        "meta_element_set_no": 999,
        "meta_rev_at_epoch": 338,
        "meta_bstar": -0.017686,
        "meta_mean_motion_dot": -0.01932308,
        "meta_mean_motion_ddot": 0,
        "tle_line1": "1 66565U 25268J   25338.75002315 -.01932308  00000+0 -17686-1 0  9991",
        "tle_line2": "2 66565  42.9987 168.2706 0001647 266.0584  38.5392 15.69897490  3380"
      },
      "geometry": {
        "type": "Point",
        "coordinates": [
          -10.213085141677565,
          -4.137500469598365
        ]
      }
    },
    {
      "type": "Feature",
      "properties": {
        "norad_id": 66566,
        "name": "STARLINK-35871",
        "group": "last-30-days",
        "lat": -5.439379453707931,
        "lon": -8.805087747856486,
        "alt_km": 365.3698543367973,
        "timestamp": "2025-12-05T05:43:13.897215+00:00",
        "meta_object_name": "STARLINK-35871",
        "meta_object_id": "2025-268K",
        "meta_epoch": "2025-12-04T18:00:02.000160",
        "meta_mean_motion": 15.69896953,
        "meta_eccentricity": 0.0001622,
        "meta_inclination": 42.9987,
        "meta_ra_of_asc_node": 168.2658,
        "meta_arg_of_pericenter": 265.2427,
        "meta_mean_anomaly": 41.2722,
        "meta_ephemeris_type": 0,
        "meta_classification_type": "U",
        "meta_norad_cat_id": 66566,
        "meta_element_set_no": 999,
        "meta_rev_at_epoch": 338,
        "meta_bstar": -0.017678,
        "meta_mean_motion_dot": -0.01931496,
        "meta_mean_motion_ddot": 0,
        "tle_line1": "1 66566U 25268K   25338.75002315 -.01931496  00000+0 -17678-1 0  9990",
        "tle_line2": "2 66566  42.9987 168.2658 0001622 265.2427  41.2722 15.69896953  3388"
      },
      "geometry": {
        "type": "Point",
        "coordinates": [
          -8.805087747856486,
          -5.439379453707931
        ]
      }
    },
    {
      "type": "Feature",
      "properties": {
        "norad_id": 66567,
        "name": "STARLINK-35825",
        "group": "last-30-days",
        "lat": -6.736578841687048,
        "lon": -7.3922801114504475,
        "alt_km": 365.572679252703,
        "timestamp": "2025-12-05T05:43:13.897227+00:00",
        "meta_object_name": "STARLINK-35825",
        "meta_object_id": "2025-268L",
        "meta_epoch": "2025-12-04T18:00:02.000160",
        "meta_mean_motion": 15.69898801,
        "meta_eccentricity": 0.0001645,
        "meta_inclination": 42.9987,
        "meta_ra_of_asc_node": 168.2612,
        "meta_arg_of_pericenter": 268.4942,
        "meta_mean_anomaly": 39.9377,
        "meta_ephemeris_type": 0,
        "meta_classification_type": "U",
        "meta_norad_cat_id": 66567,
        "meta_element_set_no": 999,
        "meta_rev_at_epoch": 338,
        "meta_bstar": -0.017718,
        "meta_mean_motion_dot": -0.01935443,
        "meta_mean_motion_ddot": 0,
        "tle_line1": "1 66567U 25268L   25338.75002315 -.01935443  00000+0 -17718-1 0  9992",
        "tle_line2": "2 66567  42.9987 168.2612 0001645 268.4942  39.9377 15.69898801  3385"
      },
      "geometry": {
        "type": "Point",
        "coordinates": [
          -7.3922801114504475,
          -6.736578841687048
        ]
      }
    },
    {
      "type": "Feature",
      "properties": {
        "norad_id": 66568,
        "name": "STARLINK-35803",
        "group": "last-30-days",
        "lat": -8.032292718929133,
        "lon": -5.969784985739025,
        "alt_km": 365.69540088053964,
        "timestamp": "2025-12-05T05:43:13.897238+00:00",
        "meta_object_name": "STARLINK-35803",
        "meta_object_id": "2025-268M",
        "meta_epoch": "2025-12-04T18:00:02.000160",
        "meta_mean_motion": 15.69901309,
        "meta_eccentricity": 0.0001489,
        "meta_inclination": 42.9987,
        "meta_ra_of_asc_node": 168.2558,
        "meta_arg_of_pericenter": 268.3953,
        "meta_mean_anomaly": 41.9534,
        "meta_ephemeris_type": 0,
        "meta_classification_type": "U",
        "meta_norad_cat_id": 66568,
        "meta_element_set_no": 999,
        "meta_rev_at_epoch": 338,
        "meta_bstar": -0.017751,
        "meta_mean_motion_dot": -0.01938749,
        "meta_mean_motion_ddot": 0,
        "tle_line1": "1 66568U 25268M   25338.75002315 -.01938749  00000+0 -17751-1 0  9992",
        "tle_line2": "2 66568  42.9987 168.2558 0001489 268.3953  41.9534 15.69901309  3388"
      },
      "geometry": {
        "type": "Point",
        "coordinates": [
          -5.969784985739025,
          -8.032292718929133
        ]
      }
    }
  ]
}